{
    "links": {
        "self": "http://www.neowsapp.com/rest/v1/neo/3776281?api_key=iIulBulltgU6a56xZRHN4H3l9WmuAYTsLGpBGhQ2"
    },
    "id": "3776281",
    "neo_reference_id": "3776281",
    "name": "(2017 MX8)",
    "designation": "2017 MX8",
    "nasa_jpl_url": "http://ssd.jpl.nasa.gov/sbdb.cgi?sstr=3776281",
    "absolute_magnitude_h": 22.1,
    "estimated_diameter": {
        "kilometers": {
            "estimated_diameter_min": 0.1010543415,
            "estimated_diameter_max": 0.2259643771
        },
        "meters": {
            "estimated_diameter_min": 101.054341542,
            "estimated_diameter_max": 225.9643771094
        },
        "miles": {
            "estimated_diameter_min": 0.0627922373,
            "estimated_diameter_max": 0.140407711
        },
        "feet": {
            "estimated_diameter_min": 331.5431259047,
            "estimated_diameter_max": 741.3529669956
        }
    },
    "is_potentially_hazardous_asteroid": false,
    "close_approach_data": [
        {
            "close_approach_date": "2017-02-14",
            "close_approach_date_full": "2017-Feb-14 06:18",
            "epoch_date_close_approach": 1487053080000,
            "relative_velocity": {
                "kilometers_per_second": "12.4828012101",
                "kilometers_per_hour": "44938.0843563668",
                "miles_per_hour": "27922.7780268769"
            },
            "miss_distance": {
                "astronomical": "0.2817370957",
                "lunar": "109.5957302273",
                "kilometers": "42147269.416706159",
                "miles": "26189098.8108926342"
            },
            "orbiting_body": "Earth"
        },
        {
            "close_approach_date": "2017-06-01",
            "close_approach_date_full": "2017-Jun-01 11:00",
            "epoch_date_close_approach": 1496314800000,
            "relative_velocity": {
                "kilometers_per_second": "2.4335329597",
                "kilometers_per_hour": "8760.7186547513",
                "miles_per_hour": "5443.5698774481"
            },
            "miss_distance": {
                "astronomical": "0.3685375814",
                "lunar": "143.3611191646",
                "kilometers": "55132437.192391618",
                "miles": "34257707.9203276084"
            },
            "orbiting_body": "Earth"
        }
    ],
    "orbital_data": {
        "orbit_id": "1",
        "orbit_determination_date": "2017-07-03 05:20:26",
        "first_observation_date": "2017-06-25",
        "last_observation_date": "2017-07-03",
        "data_arc_in_days": 8,
        "observations_used": 15,
        "orbit_uncertainty": "8",
        "minimum_orbit_intersection": ".0718012",
        "jupiter_tisserand_invariant": "4.470",
        "epoch_osculation": "2457930.5",
        "eccentricity": ".3158364642566274",
        "semi_major_axis": "1.506681441978033",
        "inclination": "5.312950001336616",
        "ascending_node_longitude": "312.6450067871105",
        "orbital_period": "675.5081379773204",
        "perihelion_distance": "1.030816502582614",
        "perihelion_argument": "231.505616792991",
        "aphelion_distance": "1.982546381373451",
        "perihelion_time": "2457820.577001565972",
        "mean_anomaly": "58.5814991877695",
        "mean_motion": ".5329321436125861",
        "equinox": "J2000",
        "orbit_class": {
            "orbit_class_type": "AMO",
            "orbit_class_description": "Near-Earth asteroid orbits similar to that of 1221 Amor",
            "orbit_class_range": "1.017 AU < q (perihelion) < 1.3 AU"
        }
    },
    "is_sentry_object": false
}